OBJECT_NAME,OBJECT_ID,EPOCH,MEAN_MOTION,ECCENTRICITY,INCLINATION,RA_OF_ASC_NODE,ARG_OF_PERICENTER,MEAN_ANOMALY,EPHEMERIS_TYPE,CLASSIFICATION_TYPE,NORAD_CAT_ID,ELEMENT_SET_NO,REV_AT_EPOCH,BSTAR,MEAN_MOTION_DOT,MEAN_MOTION_DDOT
ASTRA 3B,2010-021A,2026-06-18T13:02:00.382272,1.00271537,.00041531,1.4731,83.5405,6.6553,35.5685,0,U,36581,999,5888,0,.13E-5,0
COMSATBW-2,2010-021B,2026-06-18T12:59:08.156832,1.00273227,.00026358,0.0490,68.2984,34.6969,11.7637,0,U,36582,999,5897,0,.82E-6,0
BEIDOU-2 G3,2010-024A,2026-06-18T15:00:44.183232,1.00270938,.00077539,4.5198,61.5123,351.3778,158.8532,0,U,36590,999,5878,0,-.144E-5,0
BADR-5,2010-025A,2026-06-18T13:04:00.189696,1.00272750,.00038946,0.0565,120.9433,71.3185,300.9832,0,U,36592,999,5323,0,.147E-5,0
COMS 1,2010-032A,2026-06-18T03:32:21.653376,0.99162666,.00115422,4.8083,75.3434,11.9093,301.8413,0,U,36744,999,5109,0,.7E-6,0
ARABSAT-5A,2010-032B,2026-06-18T13:04:00.189696,1.00275786,.00058917,0.0541,38.4373,71.3331,23.5353,0,U,36745,999,5866,0,.147E-5,0
ECHOSTAR 15,2010-034A,2026-06-18T14:14:20.317344,1.00269892,.00020427,0.0415,70.6534,350.3043,300.6571,0,U,36792,999,5833,0,-.6E-7,0
BEIDOU-2 IGSO-1,2010-036A,2026-06-17T22:01:50.166336,1.00271928,.0059238,54.3019,162.9525,225.3267,315.9903,0,U,36828,999,5810,0,-.86E-6,0
NILESAT 201,2010-037A,2026-06-18T07:45:21.207168,1.00272588,.0004615,0.0142,260.9036,216.2192,258.8136,0,U,36830,999,5838,0,-.63E-6,0
RASCOM-QAF 1R,2010-037B,2026-06-18T14:36:24.435360,1.00271992,.00066397,0.0055,24.9204,59.7785,44.1513,0,U,36831,999,5832,0,.12E-6,0
AEHF-1 (USA 214),2010-039A,2026-06-17T21:39:53.780256,1.00274872,.00039126,8.2218,68.0425,9.0891,183.9496,0,U,36868,999,5366,0,.138E-5,0
XM-5,2010-053A,2026-06-18T14:05:08.362176,1.00270439,.00026529,0.0620,273.1116,289.9429,159.8519,0,U,37185,999,5749,0,-.29E-6,0
BSAT-3B,2010-056B,2026-06-18T14:04:26.383872,1.00268645,.00017161,0.0585,237.8183,305.4832,44.4619,0,U,37207,999,5211,0,-.356E-5,0
BEIDOU-2 G4,2010-057A,2026-06-18T13:40:55.681824,1.00270617,.00052917,3.6508,68.9381,196.2918,6.8032,0,U,37210,999,5730,0,-.12E-5,0
SKYTERRA 1,2010-061A,2026-06-18T06:48:46.939968,1.00271921,.00022591,5.1281,50.8593,10.1886,206.3349,0,U,37218,999,5720,0,-.126E-5,0
HYLAS 1,2010-065A,2026-06-17T21:35:22.185312,1.00271013,.00016468,5.6464,73.0089,41.3805,129.3742,0,U,37237,999,689,0,.81E-6,0
INTELSAT 17 (IS-17),2010-065B,2026-06-18T13:14:06.721152,1.00272120,.00028882,0.0244,72.7578,40.1363,58.3982,0,U,37238,999,5326,0,0,0
BEIDOU-2 IGSO-2,2010-068A,2026-06-15T20:29:59.130240,1.00282881,.0055883,47.5513,271.8488,212.6776,194.9519,0,U,37256,999,5678,0,-.214E-5,0
EUTELSAT KA-SAT 9A,2010-069A,2026-06-18T12:57:45.789120,1.00271107,.00037584,0.0601,13.2607,117.2858,339.6773,0,U,37258,999,4402,0,.55E-6,0
HISPASAT 30W-5,2010-070A,2026-06-18T09:21:30.053952,1.00271655,.00051918,0.0517,109.3403,355.3637,272.3050,0,U,37264,999,5319,0,-.222E-5,0
KOREASAT 6,2010-070B,2026-06-18T13:40:55.681824,1.00270879,.00021382,0.0160,57.3872,38.7967,175.7319,0,U,37265,999,5678,0,-.118E-5,0
BEIDOU-2 IGSO-3,2011-013A,2026-06-18T14:41:11.762880,1.00267082,.00342954,62.4088,40.1377,184.6608,10.0015,0,U,37384,999,5567,0,-.19E-5,0
INTELSAT 28 (IS-28),2011-016A,2026-06-18T09:21:00.101664,1.00271560,.00035959,1.8103,82.6007,6.0263,286.5334,0,U,37392,999,5329,0,-.232E-5,0
YAHSAT 1A,2011-016B,2026-06-18T11:27:37.677888,1.00271424,.00028159,0.0159,8.4013,83.7992,38.9272,0,U,37393,999,4242,0,0,0
SBIRS GEO-1 (USA 230),2011-019A,2026-06-18T04:36:51.715872,1.00275270,.00022746,4.5380,53.1243,29.7346,304.5958,0,U,37481,999,5540,0,.91E-6,0
TELSTAR 14R,2011-021A,2026-06-18T10:54:40.837248,1.00271822,.00022241,0.0190,57.6272,0.6231,309.1089,0,U,37602,999,5584,0,-.286E-5,0
GSAT-8,2011-022A,2026-06-18T13:11:07.008288,1.00271205,.00021237,2.1355,81.8079,198.5285,239.3125,0,U,37605,999,5323,0,.78E-6,0
ST-2,2011-022B,2026-06-18T13:20:32.224992,1.00271570,.00016465,0.0159,33.4293,63.4436,98.0672,0,U,37606,999,5529,0,-.218E-5,0
ZHONGXING-10,2011-026A,2026-06-17T20:13:07.739616,1.00267890,.00031899,1.0487,84.1808,5.9650,204.6786,0,U,37677,999,5500,0,-.193E-5,0
SES-3,2011-035A,2026-06-18T12:25:56.338752,1.00271391,.00022976,1.3312,83.0700,356.0768,271.0943,0,U,37748,999,5460,0,-.108E-5,0
KAZSAT-2,2011-035B,2026-06-18T13:19:54.785280,1.00272055,.00012396,0.0350,219.3932,315.8021,18.1013,0,U,37749,999,5341,0,-.204E-5,0
BEIDOU-2 IGSO-4,2011-038A,2026-06-16T16:27:02.962080,1.00285273,.01595197,54.6000,165.6770,231.4431,207.9860,0,U,37763,999,5464,0,.19E-6,0
